QIANFAN-18              
1 60396U 24140T   26061.92443449  .00000119  00000+0  16533-3 0  9990
2 60396  88.9726 290.6798 0013354 323.3638  36.6598 13.51003127 78354
QIANFAN-19              
1 61552U 24185A   26061.95568245  .00000581  00000+0  29646-3 0  9991
2 61552  88.9756  68.7314 0008795  57.5974 302.6063 14.14383603 81001
QIANFAN-20              
1 61553U 24185B   26061.94331790  .00000597  00000+0  33715-3 0  9993
2 61553  88.9754  69.1376 0007937  88.8405 271.3689 14.08930020 80780
QIANFAN-21              
1 61554U 24185C   26061.93279465  .00000754  00000+0  33016-3 0  9992
2 61554  88.9674  67.5681 0012944 100.1019 260.1633 14.22723630 81370
QIANFAN-22              
1 61555U 24185D   26061.97934598  .00000279  00000+0  22996-3 0  9999
2 61555  88.9738  70.4391 0008495 106.2270 253.9836 13.86337086 80059
QIANFAN-23              
1 61556U 24185E   26061.95929051  .00000616  00000+0  30320-3 0  9991
2 61556  88.9749  68.5029 0009679  65.5999 294.6198 14.16388365 81108
QIANFAN-24              
1 61557U 24185F   26061.93816200  .00000875  00000+0  37556-3 0  9996
2 61557  88.9732  67.7791 0010863  46.3061 313.9029 14.23926578 81438
QIANFAN-25              
1 61558U 24185G   26061.93241506  .00000522  00000+0  30990-3 0  9992
2 61558  88.9745  69.0960 0011929  72.5170 287.7315 14.05992039 80779
QIANFAN-26              
1 61559U 24185H   26061.99569076  .00000271  00000+0  25804-3 0  9993
2 61559  88.9743  71.0731 0007551 118.8158 241.3767 13.77859867 79722
QIANFAN-27              
1 61560U 24185J   26061.94619163  .00000676  00000+0  26954-3 0  9999
2 61560  88.9745  67.5226 0008960  39.8290 320.3560 14.27439640 81607
QIANFAN-28              
1 61561U 24185K   26061.95715227  .00000999  00000+0  39554-3 0  9997
2 61561  88.9761  67.5284 0008546  40.6196 319.5634 14.28205806 81625
QIANFAN-29              
1 61562U 24185L   26061.94794908  .00000210  00000+0  30577-3 0  9992
2 61562  88.9716  73.0071 0010117 167.0397 193.1016 13.51042372 78624
QIANFAN-30              
1 61563U 24185M   26061.98357976  .00000201  00000+0  29718-3 0  9992
2 61563  88.9736  72.5596 0008454 150.6257 209.5370 13.50017540 78899
QIANFAN-31              
1 61564U 24185N   26061.99654588  .00000216  00000+0  28178-3 0  9998
2 61564  88.9721  72.2323 0008147 141.9590 218.2142 13.58001803 79057
QIANFAN-32              
1 61565U 24185P   26061.98174685  .00000180  00000+0  26124-3 0  9992
2 61565  88.9780  72.7185 0009457 180.1223 179.9927 13.50763070 78873
QIANFAN-33              
1 61566U 24185Q   26061.93482948  .00000469  00000+0  32915-3 0  9997
2 61566  88.9734  69.8504 0009337  80.1137 280.1094 13.96620143 80354
QIANFAN-34              
1 61567U 24185R   26061.99935153  .00000485  00000+0  30733-3 0  9999
2 61567  88.9710  69.3001 0008242  83.6447 276.5672 14.02380123 80600
