[{"OBJECT_NAME":"QIANFAN-18","OBJECT_ID":"2024-140T","EPOCH":"2026-03-02T22:11:11.139936","MEAN_MOTION":13.51003127,"ECCENTRICITY":0.0013354,"INCLINATION":88.9726,"RA_OF_ASC_NODE":290.6798,"ARG_OF_PERICENTER":323.3638,"MEAN_ANOMALY":36.6598,"EPHEMERIS_TYPE":0,"CLASSIFICATION_TYPE":"U","NORAD_CAT_ID":60396,"ELEMENT_SET_NO":999,"REV_AT_EPOCH":7835,"BSTAR":0.00016532776,"MEAN_MOTION_DOT":1.19e-6,"MEAN_MOTION_DDOT":0},{"OBJECT_NAME":"QIANFAN-19","OBJECT_ID":"2024-185A","EPOCH":"2026-03-02T22:56:10.963680","MEAN_MOTION":14.14383603,"ECCENTRICITY":0.00087956,"INCLINATION":88.9756,"RA_OF_ASC_NODE":68.7314,"ARG_OF_PERICENTER":57.5974,"MEAN_ANOMALY":302.6063,"EPHEMERIS_TYPE":0,"CLASSIFICATION_TYPE":"U","NORAD_CAT_ID":61552,"ELEMENT_SET_NO":999,"REV_AT_EPOCH":8100,"BSTAR":0.00029645778,"MEAN_MOTION_DOT":5.81e-6,"MEAN_MOTION_DDOT":0},{"OBJECT_NAME":"QIANFAN-20","OBJECT_ID":"2024-185B","EPOCH":"2026-03-02T22:38:22.666560","MEAN_MOTION":14.0893002,"ECCENTRICITY":0.00079371,"INCLINATION":88.9754,"RA_OF_ASC_NODE":69.1376,"ARG_OF_PERICENTER":88.8405,"MEAN_ANOMALY":271.3689,"EPHEMERIS_TYPE":0,"CLASSIFICATION_TYPE":"U","NORAD_CAT_ID":61553,"ELEMENT_SET_NO":999,"REV_AT_EPOCH":8078,"BSTAR":0.00033714589,"MEAN_MOTION_DOT":5.97e-6,"MEAN_MOTION_DDOT":0},{"OBJECT_NAME":"QIANFAN-21","OBJECT_ID":"2024-185C","EPOCH":"2026-03-02T22:23:13.457760","MEAN_MOTION":14.2272363,"ECCENTRICITY":0.00129444,"INCLINATION":88.9674,"RA_OF_ASC_NODE":67.5681,"ARG_OF_PERICENTER":100.1019,"MEAN_ANOMALY":260.1633,"EPHEMERIS_TYPE":0,"CLASSIFICATION_TYPE":"U","NORAD_CAT_ID":61554,"ELEMENT_SET_NO":999,"REV_AT_EPOCH":8137,"BSTAR":0.00033015672,"MEAN_MOTION_DOT":7.54e-6,"MEAN_MOTION_DDOT":0},{"OBJECT_NAME":"QIANFAN-22","OBJECT_ID":"2024-185D","EPOCH":"2026-03-02T23:30:15.492672","MEAN_MOTION":13.86337086,"ECCENTRICITY":0.00084953,"INCLINATION":88.9738,"RA_OF_ASC_NODE":70.4391,"ARG_OF_PERICENTER":106.227,"MEAN_ANOMALY":253.9836,"EPHEMERIS_TYPE":0,"CLASSIFICATION_TYPE":"U","NORAD_CAT_ID":61555,"ELEMENT_SET_NO":999,"REV_AT_EPOCH":8005,"BSTAR":0.00022996489,"MEAN_MOTION_DOT":2.79e-6,"MEAN_MOTION_DDOT":0},{"OBJECT_NAME":"QIANFAN-23","OBJECT_ID":"2024-185E","EPOCH":"2026-03-02T23:01:22.700064","MEAN_MOTION":14.16388365,"ECCENTRICITY":0.0009679,"INCLINATION":88.9749,"RA_OF_ASC_NODE":68.5029,"ARG_OF_PERICENTER":65.5999,"MEAN_ANOMALY":294.6198,"EPHEMERIS_TYPE":0,"CLASSIFICATION_TYPE":"U","NORAD_CAT_ID":61556,"ELEMENT_SET_NO":999,"REV_AT_EPOCH":8110,"BSTAR":0.00030319566,"MEAN_MOTION_DOT":6.16e-6,"MEAN_MOTION_DDOT":0},{"OBJECT_NAME":"QIANFAN-24","OBJECT_ID":"2024-185F","EPOCH":"2026-03-02T22:30:57.196800","MEAN_MOTION":14.23926578,"ECCENTRICITY":0.00108634,"INCLINATION":88.9732,"RA_OF_ASC_NODE":67.7791,"ARG_OF_PERICENTER":46.3061,"MEAN_ANOMALY":313.9029,"EPHEMERIS_TYPE":0,"CLASSIFICATION_TYPE":"U","NORAD_CAT_ID":61557,"ELEMENT_SET_NO":999,"REV_AT_EPOCH":8143,"BSTAR":0.00037556372,"MEAN_MOTION_DOT":8.75e-6,"MEAN_MOTION_DDOT":0},{"OBJECT_NAME":"QIANFAN-25","OBJECT_ID":"2024-185G","EPOCH":"2026-03-02T22:22:40.661184","MEAN_MOTION":14.05992039,"ECCENTRICITY":0.00119297,"INCLINATION":88.9745,"RA_OF_ASC_NODE":69.096,"ARG_OF_PERICENTER":72.517,"MEAN_ANOMALY":287.7315,"EPHEMERIS_TYPE":0,"CLASSIFICATION_TYPE":"U","NORAD_CAT_ID":61558,"ELEMENT_SET_NO":999,"REV_AT_EPOCH":8077,"BSTAR":0.0003099034,"MEAN_MOTION_DOT":5.22e-6,"MEAN_MOTION_DDOT":0},{"OBJECT_NAME":"QIANFAN-26","OBJECT_ID":"2024-185H","EPOCH":"2026-03-02T23:53:47.681664","MEAN_MOTION":13.77859867,"ECCENTRICITY":0.0007551,"INCLINATION":88.9743,"RA_OF_ASC_NODE":71.0731,"ARG_OF_PERICENTER":118.8158,"MEAN_ANOMALY":241.3767,"EPHEMERIS_TYPE":0,"CLASSIFICATION_TYPE":"U","NORAD_CAT_ID":61559,"ELEMENT_SET_NO":999,"REV_AT_EPOCH":7972,"BSTAR":0.00025803557,"MEAN_MOTION_DOT":2.71e-6,"MEAN_MOTION_DDOT":0},{"OBJECT_NAME":"QIANFAN-27","OBJECT_ID":"2024-185J","EPOCH":"2026-03-02T22:42:30.956832","MEAN_MOTION":14.2743964,"ECCENTRICITY":0.00089609,"INCLINATION":88.9745,"RA_OF_ASC_NODE":67.5226,"ARG_OF_PERICENTER":39.829,"MEAN_ANOMALY":320.356,"EPHEMERIS_TYPE":0,"CLASSIFICATION_TYPE":"U","NORAD_CAT_ID":61560,"ELEMENT_SET_NO":999,"REV_AT_EPOCH":8160,"BSTAR":0.00026954458,"MEAN_MOTION_DOT":6.76e-6,"MEAN_MOTION_DDOT":0},{"OBJECT_NAME":"QIANFAN-28","OBJECT_ID":"2024-185K","EPOCH":"2026-03-02T22:58:17.956128","MEAN_MOTION":14.28205806,"ECCENTRICITY":0.00085469,"INCLINATION":88.9761,"RA_OF_ASC_NODE":67.5284,"ARG_OF_PERICENTER":40.6196,"MEAN_ANOMALY":319.5634,"EPHEMERIS_TYPE":0,"CLASSIFICATION_TYPE":"U","NORAD_CAT_ID":61561,"ELEMENT_SET_NO":999,"REV_AT_EPOCH":8162,"BSTAR":0.0003955426,"MEAN_MOTION_DOT":9.99e-6,"MEAN_MOTION_DDOT":0},{"OBJECT_NAME":"QIANFAN-29","OBJECT_ID":"2024-185L","EPOCH":"2026-03-02T22:45:02.800512","MEAN_MOTION":13.51042372,"ECCENTRICITY":0.00101173,"INCLINATION":88.9716,"RA_OF_ASC_NODE":73.0071,"ARG_OF_PERICENTER":167.0397,"MEAN_ANOMALY":193.1016,"EPHEMERIS_TYPE":0,"CLASSIFICATION_TYPE":"U","NORAD_CAT_ID":61562,"ELEMENT_SET_NO":999,"REV_AT_EPOCH":7862,"BSTAR":0.00030577457,"MEAN_MOTION_DOT":2.1e-6,"MEAN_MOTION_DDOT":0},{"OBJECT_NAME":"QIANFAN-30","OBJECT_ID":"2024-185M","EPOCH":"2026-03-02T23:36:21.291264","MEAN_MOTION":13.5001754,"ECCENTRICITY":0.00084543,"INCLINATION":88.9736,"RA_OF_ASC_NODE":72.5596,"ARG_OF_PERICENTER":150.6257,"MEAN_ANOMALY":209.537,"EPHEMERIS_TYPE":0,"CLASSIFICATION_TYPE":"U","NORAD_CAT_ID":61563,"ELEMENT_SET_NO":999,"REV_AT_EPOCH":7889,"BSTAR":0.00029718239,"MEAN_MOTION_DOT":2.01e-6,"MEAN_MOTION_DDOT":0},{"OBJECT_NAME":"QIANFAN-31","OBJECT_ID":"2024-185N","EPOCH":"2026-03-02T23:55:01.564032","MEAN_MOTION":13.58001803,"ECCENTRICITY":0.00081475,"INCLINATION":88.9721,"RA_OF_ASC_NODE":72.2323,"ARG_OF_PERICENTER":141.959,"MEAN_ANOMALY":218.2142,"EPHEMERIS_TYPE":0,"CLASSIFICATION_TYPE":"U","NORAD_CAT_ID":61564,"ELEMENT_SET_NO":999,"REV_AT_EPOCH":7905,"BSTAR":0.00028178056,"MEAN_MOTION_DOT":2.16e-6,"MEAN_MOTION_DDOT":0},{"OBJECT_NAME":"QIANFAN-32","OBJECT_ID":"2024-185P","EPOCH":"2026-03-02T23:33:42.927840","MEAN_MOTION":13.5076307,"ECCENTRICITY":0.00094577,"INCLINATION":88.978,"RA_OF_ASC_NODE":72.7185,"ARG_OF_PERICENTER":180.1223,"MEAN_ANOMALY":179.9927,"EPHEMERIS_TYPE":0,"CLASSIFICATION_TYPE":"U","NORAD_CAT_ID":61565,"ELEMENT_SET_NO":999,"REV_AT_EPOCH":7887,"BSTAR":0.00026124129,"MEAN_MOTION_DOT":1.8e-6,"MEAN_MOTION_DDOT":0},{"OBJECT_NAME":"QIANFAN-33","OBJECT_ID":"2024-185Q","EPOCH":"2026-03-02T22:26:09.267072","MEAN_MOTION":13.96620143,"ECCENTRICITY":0.00093373,"INCLINATION":88.9734,"RA_OF_ASC_NODE":69.8504,"ARG_OF_PERICENTER":80.1137,"MEAN_ANOMALY":280.1094,"EPHEMERIS_TYPE":0,"CLASSIFICATION_TYPE":"U","NORAD_CAT_ID":61566,"ELEMENT_SET_NO":999,"REV_AT_EPOCH":8035,"BSTAR":0.00032914934,"MEAN_MOTION_DOT":4.69e-6,"MEAN_MOTION_DDOT":0},{"OBJECT_NAME":"QIANFAN-34","OBJECT_ID":"2024-185R","EPOCH":"2026-03-02T23:59:03.972192","MEAN_MOTION":14.02380123,"ECCENTRICITY":0.00082429,"INCLINATION":88.971,"RA_OF_ASC_NODE":69.3001,"ARG_OF_PERICENTER":83.6447,"MEAN_ANOMALY":276.5672,"EPHEMERIS_TYPE":0,"CLASSIFICATION_TYPE":"U","NORAD_CAT_ID":61567,"ELEMENT_SET_NO":999,"REV_AT_EPOCH":8060,"BSTAR":0.0003073286,"MEAN_MOTION_DOT":4.85e-6,"MEAN_MOTION_DDOT":0}]
